CCSDS_OMM_VERS = 2.0
CREATION_DATE  = 
ORIGINATOR     = 

OBJECT_NAME    = 1998-067XU
OBJECT_ID      = 1998-067XU
CENTER_NAME    = EARTH
REF_FRAME      = TEME
TIME_SYSTEM    = UTC
MEAN_ELEMENT_THEORY = SGP/SGP4

EPOCH          = 2026-01-24T17:33:16.339104
MEAN_MOTION    = 15.58285977
ECCENTRICITY   = .00031594
INCLINATION    = 51.6284
RA_OF_ASC_NODE = 287.8746
ARG_OF_PERICENTER = 113.2223
MEAN_ANOMALY   = 246.9102

EPHEMERIS_TYPE = 0
CLASSIFICATION_TYPE = U
NORAD_CAT_ID   = 66908
ELEMENT_SET_NO = 999
REV_AT_EPOCH   = 830
BSTAR          = .13800288E-2
MEAN_MOTION_DOT = .107534E-2
MEAN_MOTION_DDOT = 0

CCSDS_OMM_VERS = 2.0
CREATION_DATE  = 
ORIGINATOR     = 

OBJECT_NAME    = SILVERSAT
OBJECT_ID      = 1998-067XV
CENTER_NAME    = EARTH
REF_FRAME      = TEME
TIME_SYSTEM    = UTC
MEAN_ELEMENT_THEORY = SGP/SGP4

EPOCH          = 2026-01-25T23:58:41.778624
MEAN_MOTION    = 15.59630122
ECCENTRICITY   = .0003479
INCLINATION    = 51.6286
RA_OF_ASC_NODE = 281.3397
ARG_OF_PERICENTER = 136.3944
MEAN_ANOMALY   = 223.7324

EPHEMERIS_TYPE = 0
CLASSIFICATION_TYPE = U
NORAD_CAT_ID   = 66909
ELEMENT_SET_NO = 999
REV_AT_EPOCH   = 850
BSTAR          = .16023061E-2
MEAN_MOTION_DOT = .131885E-2
MEAN_MOTION_DDOT = 0

CCSDS_OMM_VERS = 2.0
CREATION_DATE  = 
ORIGINATOR     = 

OBJECT_NAME    = 1998-067XW
OBJECT_ID      = 1998-067XW
CENTER_NAME    = EARTH
REF_FRAME      = TEME
TIME_SYSTEM    = UTC
MEAN_ELEMENT_THEORY = SGP/SGP4

EPOCH          = 2026-01-25T17:57:30.186720
MEAN_MOTION    = 15.58765438
ECCENTRICITY   = .00018306
INCLINATION    = 51.6280
RA_OF_ASC_NODE = 282.6624
ARG_OF_PERICENTER = 113.0215
MEAN_ANOMALY   = 247.0971

EPHEMERIS_TYPE = 0
CLASSIFICATION_TYPE = U
NORAD_CAT_ID   = 66910
ELEMENT_SET_NO = 999
REV_AT_EPOCH   = 846
BSTAR          = .13849384E-2
MEAN_MOTION_DOT = .109918E-2
MEAN_MOTION_DDOT = 0

CCSDS_OMM_VERS = 2.0
CREATION_DATE  = 
ORIGINATOR     = 

OBJECT_NAME    = 1998-067XX
OBJECT_ID      = 1998-067XX
CENTER_NAME    = EARTH
REF_FRAME      = TEME
TIME_SYSTEM    = UTC
MEAN_ELEMENT_THEORY = SGP/SGP4

EPOCH          = 2026-01-25T17:20:44.628864
MEAN_MOTION    = 15.60599578
ECCENTRICITY   = .00023791
INCLINATION    = 51.6272
RA_OF_ASC_NODE = 282.4918
ARG_OF_PERICENTER = 146.7804
MEAN_ANOMALY   = 213.3339

EPHEMERIS_TYPE = 0
CLASSIFICATION_TYPE = U
NORAD_CAT_ID   = 66911
ELEMENT_SET_NO = 999
REV_AT_EPOCH   = 845
BSTAR          = .170385E-2
MEAN_MOTION_DOT = .145822E-2
MEAN_MOTION_DDOT = 0

CCSDS_OMM_VERS = 2.0
CREATION_DATE  = 
ORIGINATOR     = 

OBJECT_NAME    = 1998-067XY
OBJECT_ID      = 1998-067XY
CENTER_NAME    = EARTH
REF_FRAME      = TEME
TIME_SYSTEM    = UTC
MEAN_ELEMENT_THEORY = SGP/SGP4

EPOCH          = 2026-01-25T17:22:55.606944
MEAN_MOTION    = 15.56575804
ECCENTRICITY   = .0002762
INCLINATION    = 51.6294
RA_OF_ASC_NODE = 283.2555
ARG_OF_PERICENTER = 98.5884
MEAN_ANOMALY   = 261.5420

EPHEMERIS_TYPE = 0
CLASSIFICATION_TYPE = U
NORAD_CAT_ID   = 66912
ELEMENT_SET_NO = 999
REV_AT_EPOCH   = 844
BSTAR          = .11829162E-2
MEAN_MOTION_DOT = .86137E-3
MEAN_MOTION_DDOT = 0

